QIANFAN-57              
1 62787U 25016C   25348.30646620  .00000157  00000+0  22403-3 0  9999
2 62787  88.9785 103.0376 0002328 120.7372 239.4009 13.50976972 47416
QIANFAN-58              
1 62788U 25016D   25348.27766040  .00000156  00000+0  22353-3 0  9998
2 62788  88.9754 102.8717 0012883 344.7468  15.3293 13.50978781 47450
QIANFAN-59              
1 62789U 25016E   25348.30231841  .00000142  00000+0  20107-3 0  9999
2 62789  88.9778 102.9432 0013363 348.5930  11.4916 13.50980368 47455
QIANFAN-60              
1 62790U 25016F   25348.33537235  .00000052  00000+0  62700-4 0  9996
2 62790  88.9760 102.9109 0014745 344.1196  15.9491 13.50983945 47440
QIANFAN-61              
1 62791U 25016G   25348.29409885  .00000155  00000+0  22105-3 0  9999
2 62791  88.9827 103.0792 0013729 344.0222  16.0494 13.50980820 47450
QIANFAN-62              
1 62792U 25016H   25348.29821659  .00000141  00000+0  19958-3 0  9994
2 62792  88.9773 102.9464 0015107 343.8476  16.2192 13.50977240 47443
QIANFAN-63              
1 62793U 25016J   25348.32292305  .00000161  00000+0  23069-3 0  9999
2 62793  88.9780 102.8955 0015300 349.3848  10.6978 13.50984002 47483
QIANFAN-64              
1 62794U 25016K   25348.28996953  .00000155  00000+0  22189-3 0  9990
2 62794  88.9766 102.8727 0013076 342.8385  17.2322 13.50979088 47470
